NORAD_CAT_ID,TLE_LINE0,TLE_LINE1,TLE_LINE2,CREATION_DATE,OBJECT_NAME,OBJECT_ID,EPOCH,MEAN_MOTION,ECCENTRICITY,INCLINATION,RA_OF_ASC_NODE,ARG_OF_PERICENTER,MEAN_ANOMALY,REV_AT_EPOCH,BSTAR,MEAN_MOTION_DOT,MEAN_MOTION_DDOT,SEMIMAJOR_AXIS,PERIOD,APOAPSIS,PERIAPSIS,OBJECT_TYPE,COUNTRY_CODE,LAUNCH_DATE,SITE,DECAY_DATE,LAUNCH_YEAR,LAUNCH_SEQ,EPOCH_FINAL,ORBIT_CLASS,EVENT,DURATION,RCS_SIZE
136,0 THOR ABLESTAR DEB,1 00136U 61015W   25193.06768324  .00000884  00000-0  29752-3 0  9997,2 00136  67.5287  76.6136 0048960 338.1009  21.8008 14.40683125307741,12/07/2025 17:51,THOR ABLESTAR DEB,1961-015W,12/07/2025 01:37,14.40683125,0.004896,67.5287,76.6136,338.1009,21.8008,30774,0.00029752,8.84e-06,0.0,7134.379,99.953,791.174,721.314,DEBRIS,US,29/06/1961,AFETR,,1961,15,12/07/2025 03:14,LEO,0,23390,SMALL
137,0 THOR ABLESTAR DEB,1 00137U 61015  X 80348.12845084  .07037633 +00000-0 +41851-1 0  9998,2 00137 066.5452 011.0803 0028724 046.3621 313.9926 15.60881807001670,15/08/2004 23:45,THOR ABLESTAR DEB,1961-015X,13/12/1980 03:04,15.60881807,0.0028724,66.5452,11.0803,46.3621,313.9926,167,0.041851,0.07037633,0.0,6763.249,92.255,404.541,365.688,DEBRIS,US,29/06/1961,AFETR,15/12/1980,1961,15,13/12/1980 06:09,LEO,1,7109,SMALL
138,0 THOR ABLESTAR DEB,1 00138U 61015Y   25193.46537640  .00000356  00000-0  27145-3 0  9996,2 00138  67.1528 218.1410 0027996  12.3184 347.8583 14.04268851255124,12/07/2025 17:51,THOR ABLESTAR DEB,1961-015Y,12/07/2025 11:10,14.04268851,0.0027996,67.1528,218.141,12.3184,347.8583,25512,0.00027145,3.56e-06,0.0,7257.187,102.544,899.37,858.735,DEBRIS,US,29/06/1961,AFETR,,1961,15,12/07/2025 22:20,LEO,0,23390,SMALL
139,0 THOR ABLESTAR DEB,1 00139U 61015  Z 78169.82700297  .00246524 +00000-0 +00000-0 0  9995,2 00139 067.1191 308.3513 0039978 247.0843 112.6056 15.65238762912881,15/08/2004 23:41,THOR ABLESTAR DEB,1961-015Z,18/06/1978 19:50,15.65238762,0.0039978,67.1191,308.3513,247.0843,112.6056,91288,0.0,0.00246524,0.0,6750.693,91.998,399.546,345.57,DEBRIS,US,29/06/1961,AFETR,08/07/1978,1961,15,19/06/1978 15:41,LEO,1,6218,SMALL
140,0 THOR ABLESTAR DEB,1 00140U 61015 AA 62270.11842698  .02053513 +00000-0 +00000-0 0  9993,2 00140 066.5931 170.5466 0060295 288.9744 070.3730 16.01434628068807,15/08/2004 23:35,THOR ABLESTAR DEB,1961-015AA,27/09/1962 02:50,16.01434628,0.0060295,66.5931,170.5466,288.9744,70.373,6880,0.0,0.02053513,0.0,6648.586,89.919,310.538,230.363,DEBRIS,US,26/02/1961,AFWTR,30/09/1962,1961,15,27/09/1962 05:41,LEO,1,581,SMALL
141,0 THOR ABLESTAR DEB,1 00141U 61015AB  25193.59613982  .00000162  00000-0  19562-3 0  9997,2 00141  66.5877 157.6314 0063104 269.1258  90.2587 13.88683264224661,12/07/2025 17:51,THOR ABLESTAR DEB,1961-015AB,12/07/2025 14:18,13.88683264,0.0063104,66.5877,157.6314,269.1258,90.2587,22466,0.00019562,1.62e-06,0.0,7311.386,103.695,979.389,887.113,DEBRIS,US,29/06/1961,AFETR,,1961,15,13/07/2025 04:36,LEO,0,23390,SMALL
142,0 THOR ABLESTAR DEB,1 00142U 61015 AC 67353.53905254  .01734862 +00000-0 +00000-0 0  9998,2 00142 067.0565 028.6142 0010998 010.2011 349.9276 15.83418175348911,15/08/2004 23:35,THOR ABLESTAR DEB,1961-015AC,19/12/1967 12:56,15.83418175,0.0010998,67.0565,28.6142,10.2011,349.9276,34891,0.0,0.01734862,0.0,6698.923,90.942,328.156,313.421,DEBRIS,US,28/02/1961,AFWTR,25/12/1967,1961,15,20/12/1967 01:52,LEO,1,2491,SMALL
143,0 THOR ABLESTAR DEB,1 00143U 61015 AD 62164.79996379  .01714948 +00000-0 +00000-0 0  9993,2 00143 066.2402 112.5975 0041368 055.8253 356.3771 16.02917191052905,15/08/2004 23:35,THOR ABLESTAR DEB,1961-015AD,13/06/1962 19:11,16.02917191,0.0041368,66.2402,112.5975,55.8253,356.3771,5290,0.0,0.01714948,0.0,6644.486,89.836,293.837,238.864,DEBRIS,US,02/03/1961,AFWTR,16/06/1962,1961,15,14/06/1962 14:23,LEO,1,471,SMALL
144,0 THOR ABLESTAR DEB,1 00144U 61015AE  25193.57019373  .00000142  00000-0  17320-3 0  9990,2 00144  66.4986 148.4220 0047557 224.4841 135.2413 13.91433817237397,12/07/2025 17:51,THOR ABLESTAR DEB,1961-015AE,12/07/2025 13:41,13.91433817,0.0047557,66.4986,148.422,224.4841,135.2413,23739,0.0001732,1.42e-06,0.0,7301.747,103.49,958.337,888.887,DEBRIS,US,29/06/1961,AFETR,,1961,15,13/07/2025 03:22,LEO,0,23390,SMALL
145,0 THOR ABLESTAR DEB,1 00145U 61015AF  25193.55829342  .00000100  00000-0  11289-3 0  9996,2 00145  66.9257 144.9419 0064185 193.5142 166.4229 14.02995556269067,12/07/2025 17:51,THOR ABLESTAR DEB,1961-015AF,12/07/2025 13:23,14.02995556,0.0064185,66.9257,144.9419,193.5142,166.4229,26906,0.00011289,1e-06,0.0,7261.578,102.638,930.051,836.834,DEBRIS,US,29/06/1961,AFETR,,1961,15,13/07/2025 02:47,LEO,0,23390,SMALL
146,0 THOR ABLESTAR DEB,1 00146U 61015 AG 69188.03591139  .58216822 +00000-0 +00000-0 0  9991,2 00146 066.9466 048.3540 0074760 301.4810 057.9117 16.49108106427925,15/08/2004 23:36,THOR ABLESTAR DEB,1961-015AG,07/07/1969 00:51,16.49108106,0.007476,66.9466,48.354,301.481,57.9117,42792,0.0,0.58216822,0.0,6519.826,87.319,190.433,92.949,DEBRIS,US,04/03/1961,AFWTR,07/07/1969,1961,15,07/07/1969 01:43,LEO,1,3047,SMALL
147,0 THOR ABLESTAR DEB,1 00147U 61015AH  25193.35927740  .00000646  00000-0  31558-3 0  9993,2 00147  66.6160 163.6386 0058653 309.1804  50.4088 14.23452360286083,12/07/2025 17:51,THOR ABLESTAR DEB,1961-015AH,12/07/2025 08:37,14.2345236,0.0058653,66.616,163.6386,309.1804,50.4088,28608,0.00031558,6.46e-06,0.0,7191.838,101.163,855.885,771.521,DEBRIS,US,29/06/1961,AFETR,,1961,15,12/07/2025 17:14,LEO,0,23390,SMALL
148,0 THOR ABLESTAR DEB,1 00148U 61015AJ  25193.50882184  .00000944  00000-0  53570-3 0  9992,2 00148  65.7731 287.0808 0135755 139.9397 221.1792 14.10061774711075,12/07/2025 17:51,THOR ABLESTAR DEB,1961-015AJ,12/07/2025 12:12,14.10061774,0.0135755,65.7731,287.0808,139.9397,221.1792,71107,0.0005357,9.44e-06,0.0,7237.297,102.123,957.412,760.912,DEBRIS,US,29/06/1961,AFETR,,1961,15,13/07/2025 00:25,LEO,0,23390,SMALL
149,0 THOR ABLESTAR DEB,1 00149U 61015 AK 79016.58215268  .00299679 +00000-0 +00000-0 0  9999,2 00149 067.0786 137.3151 0012536 137.9270 222.2788 15.05239877947746,15/08/2004 23:41,THOR ABLESTAR DEB,1961-015AK,16/01/1979 13:58,15.05239877,0.0012536,67.0786,137.3151,137.927,222.2788,94774,0.0,0.00299679,0.0,6928.91,95.665,559.461,542.089,DEBRIS,US,29/06/1961,AFETR,03/03/1979,1961,15,17/01/1979 03:56,LEO,1,6456,SMALL
150,0 THOR ABLESTAR DEB,1 00150U 61015AL  25193.49765452  .00000091  00000-0  15276-3 0  9995,2 00150  66.2484  20.9170 0051034  94.0226 266.6680 13.83479282 61506,12/07/2025 17:51,THOR ABLESTAR DEB,1961-015AL,12/07/2025 11:56,13.83479282,0.0051034,66.2484,20.917,94.0226,266.668,6150,0.00015276,9.1e-07,0.0,7329.709,104.085,988.98,914.168,DEBRIS,US,29/06/1961,AFETR,,1961,15,12/07/2025 23:53,LEO,0,23390,SMALL
151,0 THOR ABLESTAR DEB,1 00151U 61015 AM 67329.39118118  .01422141 +00000-0 +00000-0 0  9994,2 00151 066.8381 085.9273 0044334 231.5785 128.1289 15.71211853344235,15/08/2004 23:35,THOR ABLESTAR DEB,1961-015AM,25/11/1967 09:23,15.71211853,0.0044334,66.8381,85.9273,231.5785,128.1289,34423,0.0,0.01422141,0.0,6733.573,91.649,385.291,325.586,DEBRIS,US,06/03/1961,AFWTR,02/12/1967,1961,15,25/11/1967 18:46,LEO,1,2462,SMALL
152,0 THOR ABLESTAR DEB,1 00152U 61015AN  25193.47934035  .00000146  00000-0  11464-3 0  9996,2 00152  66.5935 105.2993 0143244  66.3530 295.2518 14.11164628278142,12/07/2025 17:51,THOR ABLESTAR DEB,1961-015AN,12/07/2025 11:30,14.11164628,0.0143244,66.5935,105.2993,66.353,295.2518,27814,0.00011464,1.46e-06,0.0,7233.526,102.043,959.007,751.775,DEBRIS,US,29/06/1961,AFETR,,1961,15,12/07/2025 23:00,LEO,0,23390,SMALL
153,0 THOR ABLESTAR DEB,1 00153U 61015 AP 81109.85475893  .11253241 +00000-0 +47770-1 0  9995,2 00153 067.0866 035.8296 0019849 221.7533 138.3946 15.63487075093070,16/08/2004 23:12,THOR ABLESTAR DEB,1961-015AP,19/04/1981 20:30,15.63487075,0.0019849,67.0866,35.8296,221.7533,138.3946,9307,0.04777,0.11253241,0.0,6755.734,92.101,391.009,364.19,DEBRIS,US,29/06/1961,AFETR,20/04/1981,1961,15,20/04/1981 17:01,LEO,1,7235,SMALL
154,0 THOR ABLESTAR DEB,1 00154U 61015AQ  25193.56534058  .00000241  00000-0  18932-3 0  9992,2 00154  66.6588 288.9538 0090192 249.7941 109.3428 14.06051481268880,12/07/2025 17:51,THOR ABLESTAR DEB,1961-015AQ,12/07/2025 13:34,14.06051481,0.0090192,66.6588,288.9538,249.7941,109.3428,26888,0.00018932,2.41e-06,0.0,7251.052,102.414,938.316,807.518,DEBRIS,US,29/06/1961,AFETR,,1961,15,13/07/2025 03:08,LEO,0,23390,SMALL
155,0 THOR ABLESTAR DEB,1 00155U 61015AR  25193.43259277  .00001543  00000-0  41846-3 0  9992,2 00155  66.8761  98.8706 0036955 173.6272 186.5316 14.49932039311819,12/07/2025 17:51,THOR ABLESTAR DEB,1961-015AR,12/07/2025 10:22,14.49932039,0.0036955,66.8761,98.8706,173.6272,186.5316,31181,0.00041846,1.54e-05,0.0,7104.007,99.315,752.125,699.62,DEBRIS,US,29/06/1961,AFETR,,1961,15,12/07/2025 20:45,LEO,0,23390,SMALL
156,0 THOR ABLESTAR DEB,1 00156U 61015AS  98268.24939133  .08387044  46110+0  29248-1 0  9993,2 00156 066.9586 167.2062 0020807 204.3324 155.8200 16.02457719902322,17/08/2004 15:21,THOR ABLESTAR DEB,1961-015AS,25/09/1998 05:59,16.02457719,0.0020807,66.9586,167.2062,204.3324,155.82,90232,0.029248,0.08387044,0.4611,6645.756,89.861,281.448,253.793,DEBRIS,US,29/06/1961,AFETR,25/09/1998,1961,15,25/09/1998 11:58,LEO,1,13602,SMALL
157,0 THOR ABLESTAR DEB,1 00157U 61015 AT 80366.73704285  .01604760 +00000-0 +58916-2 0  9990,2 00157 066.7057 153.5182 0016804 216.0306 143.9849 15.84119847036643,15/08/2004 23:45,THOR ABLESTAR DEB,1961-015AT,31/12/1980 17:41,15.84119847,0.0016804,66.7057,153.5182,216.0306,143.9849,3664,0.0058916,0.0160476,0.0,6696.945,90.902,330.064,307.556,DEBRIS,US,08/03/1961,AFWTR,08/01/1981,1961,15,01/01/1981 11:22,LEO,1,7246,SMALL
158,0 THOR ABLESTAR DEB,1 00158U 61015AU  25193.57789220  .00000144  00000-0  51079-3 0  9991,2 00158  67.0739 156.3248 0601544  90.2822 276.7100 12.66034573962355,12/07/2025 17:51,THOR ABLESTAR DEB,1961-015AU,12/07/2025 13:52,12.66034573,0.0601544,67.0739,156.3248,90.2822,276.71,96235,0.00051079,1.44e-06,0.0,7776.272,113.741,1865.914,930.36,DEBRIS,US,29/06/1961,AFETR,,1961,15,13/07/2025 03:44,LEO,0,23390,SMALL
